[{"OBJECT_NAME":"ABS-6","OBJECT_ID":"1999-053A","EPOCH":"2026-04-25T20:48:51.668352","MEAN_MOTION":1.00271032,"ECCENTRICITY":0.000306,"INCLINATION":0.0492,"RA_OF_ASC_NODE":89.483,"ARG_OF_PERICENTER":323.2349,"MEAN_ANOMALY":272.3906,"EPHEMERIS_TYPE":0,"CLASSIFICATION_TYPE":"U","NORAD_CAT_ID":25924,"ELEMENT_SET_NO":999,"REV_AT_EPOCH":9731,"BSTAR":0,"MEAN_MOTION_DOT":-1.33e-6,"MEAN_MOTION_DDOT":0},{"OBJECT_NAME":"SL-12 R/B(2)","OBJECT_ID":"1999-053D","EPOCH":"2026-04-24T10:05:20.874336","MEAN_MOTION":1.8934875,"ECCENTRICITY":0.53293934,"INCLINATION":17.6985,"RA_OF_ASC_NODE":319.3398,"ARG_OF_PERICENTER":271.1128,"MEAN_ANOMALY":34.5982,"EPHEMERIS_TYPE":0,"CLASSIFICATION_TYPE":"U","NORAD_CAT_ID":25927,"ELEMENT_SET_NO":999,"REV_AT_EPOCH":18341,"BSTAR":0,"MEAN_MOTION_DOT":-2.98e-6,"MEAN_MOTION_DDOT":0},{"OBJECT_NAME":"UFO 10 (USA 146)","OBJECT_ID":"1999-063A","EPOCH":"2026-04-22T01:55:38.740800","MEAN_MOTION":1.00273529,"ECCENTRICITY":0.00041816,"INCLINATION":9.8402,"RA_OF_ASC_NODE":27.4977,"ARG_OF_PERICENTER":350.6248,"MEAN_ANOMALY":198.1763,"EPHEMERIS_TYPE":0,"CLASSIFICATION_TYPE":"U","NORAD_CAT_ID":25967,"ELEMENT_SET_NO":999,"REV_AT_EPOCH":9678,"BSTAR":0,"MEAN_MOTION_DOT":-1.94e-6,"MEAN_MOTION_DDOT":0},{"OBJECT_NAME":"XMM-NEWTON","OBJECT_ID":"1999-066A","EPOCH":"2026-04-27T11:42:44.676576","MEAN_MOTION":0.50130113,"ECCENTRICITY":0.468937,"INCLINATION":64.7433,"RA_OF_ASC_NODE":283.632,"ARG_OF_PERICENTER":65.8291,"MEAN_ANOMALY":0.0919,"EPHEMERIS_TYPE":0,"CLASSIFICATION_TYPE":"U","NORAD_CAT_ID":25989,"ELEMENT_SET_NO":999,"REV_AT_EPOCH":2275,"BSTAR":0,"MEAN_MOTION_DOT":-2.2e-7,"MEAN_MOTION_DDOT":0},{"OBJECT_NAME":"ARIANE 5 R/B","OBJECT_ID":"1999-066B","EPOCH":"2026-04-27T14:08:39.756192","MEAN_MOTION":0.55302734,"ECCENTRICITY":0.6134674,"INCLINATION":71.336,"RA_OF_ASC_NODE":304.9413,"ARG_OF_PERICENTER":111.4935,"MEAN_ANOMALY":359.6083,"EPHEMERIS_TYPE":0,"CLASSIFICATION_TYPE":"U","NORAD_CAT_ID":25990,"ELEMENT_SET_NO":999,"REV_AT_EPOCH":2506,"BSTAR":0,"MEAN_MOTION_DOT":-3.11e-6,"MEAN_MOTION_DDOT":0},{"OBJECT_NAME":"SL-6 R/B(2)","OBJECT_ID":"1999-073D","EPOCH":"2026-04-25T07:31:20.267328","MEAN_MOTION":2.08494521,"ECCENTRICITY":0.7470057,"INCLINATION":62.3343,"RA_OF_ASC_NODE":129.7392,"ARG_OF_PERICENTER":205.1997,"MEAN_ANOMALY":81.8913,"EPHEMERIS_TYPE":0,"CLASSIFICATION_TYPE":"U","NORAD_CAT_ID":26045,"ELEMENT_SET_NO":999,"REV_AT_EPOCH":19604,"BSTAR":0.00089717,"MEAN_MOTION_DOT":0.00026051,"MEAN_MOTION_DDOT":-4.6458e-7},{"OBJECT_NAME":"IABS R/B","OBJECT_ID":"2000-001C","EPOCH":"2026-04-24T13:56:23.754336","MEAN_MOTION":1.01180331,"ECCENTRICITY":0.00286228,"INCLINATION":14.1036,"RA_OF_ASC_NODE":359.9829,"ARG_OF_PERICENTER":334.4251,"MEAN_ANOMALY":25.3957,"EPHEMERIS_TYPE":0,"CLASSIFICATION_TYPE":"U","NORAD_CAT_ID":26054,"ELEMENT_SET_NO":999,"REV_AT_EPOCH":2554,"BSTAR":0,"MEAN_MOTION_DOT":-2.75e-6,"MEAN_MOTION_DDOT":0},{"OBJECT_NAME":"GALAXY 10R (G-10R)","OBJECT_ID":"2000-002A","EPOCH":"2026-04-25T12:44:12.397056","MEAN_MOTION":0.99646107,"ECCENTRICITY":0.0002544,"INCLINATION":12.0924,"RA_OF_ASC_NODE":31.6091,"ARG_OF_PERICENTER":179.2096,"MEAN_ANOMALY":10.3857,"EPHEMERIS_TYPE":0,"CLASSIFICATION_TYPE":"U","NORAD_CAT_ID":26056,"ELEMENT_SET_NO":999,"REV_AT_EPOCH":9580,"BSTAR":0,"MEAN_MOTION_DOT":-1.19e-6,"MEAN_MOTION_DDOT":0},{"OBJECT_NAME":"GARUDA 1","OBJECT_ID":"2000-011A","EPOCH":"2026-04-25T14:59:40.827840","MEAN_MOTION":0.99917951,"ECCENTRICITY":0.0003031,"INCLINATION":9.5268,"RA_OF_ASC_NODE":64.5157,"ARG_OF_PERICENTER":285.3364,"MEAN_ANOMALY":284.109,"EPHEMERIS_TYPE":0,"CLASSIFICATION_TYPE":"U","NORAD_CAT_ID":26089,"ELEMENT_SET_NO":999,"REV_AT_EPOCH":4113,"BSTAR":0,"MEAN_MOTION_DOT":7.1e-7,"MEAN_MOTION_DDOT":0},{"OBJECT_NAME":"SL-12 R/B(2)","OBJECT_ID":"2000-011B","EPOCH":"2026-04-25T15:23:51.273888","MEAN_MOTION":1.90707635,"ECCENTRICITY":0.533055,"INCLINATION":16.1118,"RA_OF_ASC_NODE":236.3441,"ARG_OF_PERICENTER":306.694,"MEAN_ANOMALY":20.2812,"EPHEMERIS_TYPE":0,"CLASSIFICATION_TYPE":"U","NORAD_CAT_ID":26090,"ELEMENT_SET_NO":999,"REV_AT_EPOCH":18250,"BSTAR":0,"MEAN_MOTION_DOT":-2.44e-6,"MEAN_MOTION_DDOT":0},{"OBJECT_NAME":"SL-12 R/B(2)","OBJECT_ID":"2000-013D","EPOCH":"2026-04-25T01:22:01.934976","MEAN_MOTION":1.00758507,"ECCENTRICITY":0.0007018,"INCLINATION":14.3198,"RA_OF_ASC_NODE":1.2218,"ARG_OF_PERICENTER":63.6059,"MEAN_ANOMALY":113.1303,"EPHEMERIS_TYPE":0,"CLASSIFICATION_TYPE":"U","NORAD_CAT_ID":26101,"ELEMENT_SET_NO":999,"REV_AT_EPOCH":9610,"BSTAR":0,"MEAN_MOTION_DOT":-2.99e-6,"MEAN_MOTION_DDOT":0},{"OBJECT_NAME":"ASIASTAR","OBJECT_ID":"2000-016A","EPOCH":"2026-04-25T19:14:31.403904","MEAN_MOTION":1.00274643,"ECCENTRICITY":0.0005047,"INCLINATION":9.0109,"RA_OF_ASC_NODE":58.7065,"ARG_OF_PERICENTER":336.3308,"MEAN_ANOMALY":212.3954,"EPHEMERIS_TYPE":0,"CLASSIFICATION_TYPE":"U","NORAD_CAT_ID":26107,"ELEMENT_SET_NO":999,"REV_AT_EPOCH":9539,"BSTAR":0,"MEAN_MOTION_DOT":-3.43e-6,"MEAN_MOTION_DDOT":0},{"OBJECT_NAME":"INSAT-3B","OBJECT_ID":"2000-016B","EPOCH":"2026-04-25T03:09:21.640608","MEAN_MOTION":0.99662546,"ECCENTRICITY":0.00065079,"INCLINATION":10.7508,"RA_OF_ASC_NODE":45.9751,"ARG_OF_PERICENTER":246.1497,"MEAN_ANOMALY":288.8813,"EPHEMERIS_TYPE":0,"CLASSIFICATION_TYPE":"U","NORAD_CAT_ID":26108,"ELEMENT_SET_NO":999,"REV_AT_EPOCH":5090,"BSTAR":0,"MEAN_MOTION_DOT":-2.89e-6,"MEAN_MOTION_DDOT":0},{"OBJECT_NAME":"IMAGE","OBJECT_ID":"2000-017A","EPOCH":"2026-04-25T12:09:23.245056","MEAN_MOTION":1.6866558,"ECCENTRICITY":0.7471665,"INCLINATION":94.1879,"RA_OF_ASC_NODE":314.6723,"ARG_OF_PERICENTER":293.8028,"MEAN_ANOMALY":7.8719,"EPHEMERIS_TYPE":0,"CLASSIFICATION_TYPE":"U","NORAD_CAT_ID":26113,"ELEMENT_SET_NO":999,"REV_AT_EPOCH":16061,"BSTAR":0.0038868,"MEAN_MOTION_DOT":9.8e-7,"MEAN_MOTION_DDOT":0},{"OBJECT_NAME":"DELTA 2 R/B(2)","OBJECT_ID":"2000-017C","EPOCH":"2026-04-25T13:30:53.856576","MEAN_MOTION":1.68222645,"ECCENTRICITY":0.749433,"INCLINATION":94.1474,"RA_OF_ASC_NODE":314.8318,"ARG_OF_PERICENTER":296.6327,"MEAN_ANOMALY":7.2966,"EPHEMERIS_TYPE":0,"CLASSIFICATION_TYPE":"U","NORAD_CAT_ID":26115,"ELEMENT_SET_NO":999,"REV_AT_EPOCH":16021,"BSTAR":-0.0078016,"MEAN_MOTION_DOT":4.9e-7,"MEAN_MOTION_DDOT":0}]
