ABS-6                   
1 25924U 99053A   26115.86726468 -.00000133  00000+0  00000+0 0  9996
2 25924   0.0492  89.4830 0003060 323.2349 272.3906  1.00271032 97311
SL-12 R/B(2)            
1 25927U 99053D   26114.42038049 -.00000298  00000+0  00000+0 0  9993
2 25927  17.6985 319.3398 5329393 271.1128  34.5982  1.89348750183418
UFO 10 (USA 146)        
1 25967U 99063A   26112.08030950 -.00000194  00000+0  00000+0 0  9996
2 25967   9.8402  27.4977 0004181 350.6248 198.1763  1.00273529 96786
XMM-NEWTON              
1 25989U 99066A   26117.48801710 -.00000022  00000+0  00000+0 0  9992
2 25989  64.7433 283.6320 4689370  65.8291   0.0919  0.50130113 22753
ARIANE 5 R/B            
1 25990U 99066B   26117.58934903 -.00000311  00000+0  00000+0 0  9997
2 25990  71.3360 304.9413 6134674 111.4935 359.6083  0.55302734 25062
SL-6 R/B(2)             
1 26045U 99073D   26115.31342902  .00026051 -46458-6  89717-3 0  9997
2 26045  62.3343 129.7392 7470056 205.1997  81.8913  2.08494521196040
IABS R/B                
1 26054U 00001C   26114.58083049 -.00000275  00000+0  00000+0 0  9992
2 26054  14.1036 359.9829 0028622 334.4251  25.3957  1.01180331 25546
GALAXY 10R (G-10R)      
1 26056U 00002A   26115.53069905 -.00000119  00000+0  00000+0 0  9993
2 26056  12.0924  31.6091 0002544 179.2096  10.3857  0.99646107 95806
GARUDA 1                
1 26089U 00011A   26115.62477811  .00000071  00000+0  00000+0 0  9994
2 26089   9.5268  64.5157 0003031 285.3364 284.1090  0.99917951 41136
SL-12 R/B(2)            
1 26090U 00011B   26115.64156568 -.00000244  00000+0  00000+0 0  9994
2 26090  16.1118 236.3441 5330550 306.6940  20.2812  1.90707635182508
SL-12 R/B(2)            
1 26101U 00013D   26115.05696684 -.00000299  00000+0  00000+0 0  9992
2 26101  14.3198   1.2218 0007018  63.6059 113.1303  1.00758507 96108
ASIASTAR                
1 26107U 00016A   26115.80175237 -.00000343  00000+0  00000+0 0  9990
2 26107   9.0109  58.7065 0005046 336.3308 212.3954  1.00274643 95398
INSAT-3B                
1 26108U 00016B   26115.13150047 -.00000289  00000+0  00000+0 0  9998
2 26108  10.7508  45.9751 0006507 246.1497 288.8813  0.99662546 50901
IMAGE                   
1 26113U 00017A   26115.50651904  .00000098  00000+0  38868-2 0  9997
2 26113  94.1879 314.6723 7471665 293.8028   7.8719  1.68665580160618
DELTA 2 R/B(2)          
1 26115U 00017C   26115.56312335  .00000049  00000+0 -78016-2 0  9993
2 26115  94.1474 314.8318 7494330 296.6327   7.2966  1.68222645160215
